{
    "links": {
        "self": "http://www.neowsapp.com/rest/v1/neo/3841177?api_key=iIulBulltgU6a56xZRHN4H3l9WmuAYTsLGpBGhQ2"
    },
    "id": "3841177",
    "neo_reference_id": "3841177",
    "name": "(2019 GO19)",
    "designation": "2019 GO19",
    "nasa_jpl_url": "http://ssd.jpl.nasa.gov/sbdb.cgi?sstr=3841177",
    "absolute_magnitude_h": 23.5,
    "estimated_diameter": {
        "kilometers": {
            "estimated_diameter_min": 0.0530340723,
            "estimated_diameter_max": 0.1185877909
        },
        "meters": {
            "estimated_diameter_min": 53.0340723319,
            "estimated_diameter_max": 118.5877908577
        },
        "miles": {
            "estimated_diameter_min": 0.0329538346,
            "estimated_diameter_max": 0.0736870142
        },
        "feet": {
            "estimated_diameter_min": 173.9963058693,
            "estimated_diameter_max": 389.0675677576
        }
    },
    "is_potentially_hazardous_asteroid": false,
    "close_approach_data": [
        {
            "close_approach_date": "2018-11-09",
            "close_approach_date_full": "2018-Nov-09 20:36",
            "epoch_date_close_approach": 1541795760000,
            "relative_velocity": {
                "kilometers_per_second": "18.4990814695",
                "kilometers_per_hour": "66596.6932900326",
                "miles_per_hour": "41380.5953390205"
            },
            "miss_distance": {
                "astronomical": "0.0429672369",
                "lunar": "16.7142551541",
                "kilometers": "6427807.120025403",
                "miles": "3994054.1376324414"
            },
            "orbiting_body": "Mars"
        },
        {
            "close_approach_date": "2019-03-17",
            "close_approach_date_full": "2019-Mar-17 23:53",
            "epoch_date_close_approach": 1552866780000,
            "relative_velocity": {
                "kilometers_per_second": "14.4142560326",
                "kilometers_per_hour": "51891.3217174608",
                "miles_per_hour": "32243.2493193856"
            },
            "miss_distance": {
                "astronomical": "0.0570667729",
                "lunar": "22.1989746581",
                "kilometers": "8537067.673613723",
                "miles": "5304687.8707384574"
            },
            "orbiting_body": "Earth"
        }
    ],
    "orbital_data": {
        "orbit_id": "1",
        "orbit_determination_date": "2019-04-14 16:12:07",
        "first_observation_date": "2019-04-08",
        "last_observation_date": "2019-04-14",
        "data_arc_in_days": 6,
        "observations_used": 20,
        "orbit_uncertainty": "8",
        "minimum_orbit_intersection": ".0269244",
        "jupiter_tisserand_invariant": "3.601",
        "epoch_osculation": "2458583.5",
        "eccentricity": ".6177380828739969",
        "semi_major_axis": "1.970096793237052",
        "inclination": "7.203300055749615",
        "ascending_node_longitude": "169.7359795756256",
        "orbital_period": "1010.019533542373",
        "perihelion_distance": ".7530929771065864",
        "perihelion_argument": "304.029598037117",
        "aphelion_distance": "3.187100609367517",
        "perihelion_time": "2458519.236547761869",
        "mean_anomaly": "22.90534196362311",
        "mean_motion": ".3564287501820845",
        "equinox": "J2000",
        "orbit_class": {
            "orbit_class_type": "APO",
            "orbit_class_description": "Near-Earth asteroid orbits which cross the Earth’s orbit similar to that of 1862 Apollo",
            "orbit_class_range": "a (semi-major axis) > 1.0 AU; q (perihelion) < 1.017 AU"
        }
    },
    "is_sentry_object": false
}